STARLINK-32365          
1 61625U 24191E   26068.26212938 -.00000967  00000+0 -25662-4 0  9990
2 61625  42.9950 156.6897 0000305 104.6492 255.4394 15.27574060 77471
FLOCK 4G-21             
1 62651U 25009AU  26068.19487675  .00013648  00000+0  49619-3 0  9998
2 62651  97.4032 151.1274 0000465 329.5782  30.5431 15.28381075 63677
